NORAD_CAT_ID,OBJECT_NAME,OBJECT_TYPE,EPOCH,MEAN_MOTION,ECCENTRICITY,INCLINATION,RA_OF_ASC_NODE,ARG_OF_PERICENTER,MEAN_ANOMALY,BSTAR,MEAN_MOTION_DOT,MEAN_MOTION_DDOT,TLE_LINE0,TLE_LINE1,TLE_LINE2,SEMIMAJOR_AXIS,PERIOD,APOGEE,PERIGEE,DECAYED
52293.0,STARLINK-3771,PAYLOAD,2023-09-21 05:28:08,15.08827605,0.0001492,53.2159,181.4569,89.3475,270.7688,-2.5779e-05,-6.98e-06,0.0,0 STARLINK-3771,1 52293U 22041AJ  23264.22787817 -.00000698  00000-0 -25779-4 0  9998,2 52293  53.2159 181.4569 0001492  89.3475 270.7688 15.08827605 78560,6917.918,95.438,540.815,538.751,0.0
52293.0,STARLINK-3771,PAYLOAD,2023-09-22 00:32:46,15.08851311,0.0001306,53.2149,177.8904,87.4583,272.6559,0.00067644,0.00010497,0.0,0 STARLINK-3771,1 52293U 22041AJ  23265.02275594  .00010497  00000-0  67644-3 0  9993,2 52293  53.2149 177.8904 0001306  87.4583 272.6559 15.08851311 79902,6917.846,95.437,540.614,538.807,0.0
52293.0,STARLINK-3771,PAYLOAD,2023-09-22 03:43:32,15.08863445,0.0001405,53.2152,177.2949,86.0632,274.052,0.0011119,0.00017464,0.0,0 STARLINK-3771,1 52293U 22041AJ  23265.15523413  .00017464  00000-0  11119-2 0  9999,2 52293  53.2152 177.2949 0001405  86.0632 274.0520 15.08863445 79926,6917.809,95.436,540.646,538.702,0.0
52293.0,STARLINK-3771,PAYLOAD,2023-09-22 18:02:00,15.08856047,0.0001706,53.2147,174.6195,74.0436,286.0743,0.00059434,9.188e-05,0.0,0 STARLINK-3771,1 52293U 22041AJ  23265.75139502  .00009188  00000-0  59434-3 0  9994,2 52293  53.2147 174.6195 0001706  74.0436 286.0743 15.08856047 80019,6917.831,95.437,540.877,538.516,0.0
52293.0,STARLINK-3771,PAYLOAD,2023-09-23 03:34:18,15.08866099,0.000139,53.2151,172.834,74.033,286.0815,0.0010141,0.000159,0.0,0 STARLINK-3771,1 52293U 22041AJ  23266.14883016  .00015900  00000-0  10141-2 0  9994,2 52293  53.2151 172.8340 0001390  74.0330 286.0815 15.08866099 78855,6917.801,95.436,540.627,538.704,0.0
52293.0,STARLINK-3771,PAYLOAD,2023-09-23 17:52:47,15.08847249,0.0001276,53.216,170.1566,86.3205,273.7933,0.00085999,0.00013428,0.0,0 STARLINK-3771,1 52293U 22041AJ  23266.74499315  .00013428  00000-0  85999-3 0  9992,2 52293  53.2160 170.1566 0001276  86.3205 273.7933 15.08847249 80163,6917.858,95.437,540.606,538.841,0.0
52293.0,STARLINK-3771,PAYLOAD,2023-09-24 00:14:19,15.08849213,0.0001402,53.216,168.9677,89.5568,270.5585,0.0008677,0.00013552,0.0,0 STARLINK-3771,1 52293U 22041AJ  23267.00995263  .00013552  00000-0  86770-3 0  9991,2 52293  53.2160 168.9677 0001402  89.5568 270.5585 15.08849213 78987,6917.852,95.437,540.687,538.747,0.0
52293.0,STARLINK-3771,PAYLOAD,2023-09-24 22:29:44,15.08836595,0.0001695,53.217,164.804,110.3543,249.7631,0.00053621,8.255e-05,0.0,0 STARLINK-3771,1 52293U 22041AJ  23267.93731752  .00008255  00000-0  53621-3 0  9997,2 52293  53.2170 164.8040 0001695 110.3543 249.7631 15.08836595 79123,6917.891,95.438,540.928,538.583,0.0
52293.0,STARLINK-3771,PAYLOAD,2023-09-25 00:05:07,15.08838275,0.0001474,53.2168,164.5065,98.1113,262.0046,0.00033008,4.969e-05,0.0,0 STARLINK-3771,1 52293U 22041AJ  23268.00355724  .00004969  00000-0  33008-3 0  9992,2 52293  53.2168 164.5065 0001474  98.1113 262.0046 15.08838275 80357,6917.886,95.438,540.77,538.731,0.0
52293.0,STARLINK-3771,PAYLOAD,2023-09-25 09:37:26,15.08851185,0.0001391,53.2166,162.723,93.1063,267.0088,0.00059705,9.23e-05,0.0,0 STARLINK-3771,1 52293U 22041AJ  23268.40099580  .00009230  00000-0  59705-3 0  9999,2 52293  53.2166 162.7230 0001391  93.1063 267.0088 15.08851185 79192,6917.846,95.437,540.673,538.749,0.0
52293.0,STARLINK-3771,PAYLOAD,2023-09-25 22:20:30,15.08862311,0.0001332,53.2161,160.3438,77.3877,282.7264,0.00071097,0.00011052,0.0,0 STARLINK-3771,1 52293U 22041AJ  23268.93091027  .00011052  00000-0  71097-3 0  9998,2 52293  53.2161 160.3438 0001332  77.3877 282.7264 15.08862311 79275,6917.812,95.436,540.599,538.756,0.0
52293.0,STARLINK-3771,PAYLOAD,2023-09-25 23:55:53,15.08869608,0.0001364,53.2167,160.0469,90.3981,269.7168,0.00089179,0.00013945,0.0,0 STARLINK-3771,1 52293U 22041AJ  23268.99714759  .00013945  00000-0  89179-3 0  9991,2 52293  53.2167 160.0469 0001364  90.3981 269.7168 15.08869608 80500,6917.79,95.436,540.598,538.711,0.0
52293.0,STARLINK-3771,PAYLOAD,2023-09-26 17:25:08,15.08833256,0.0001389,53.2165,156.776,90.2959,269.8193,-7.1188e-05,-1.42e-05,0.0,0 STARLINK-3771,1 52293U 22041AJ  23269.72579718 -.00001420  00000-0 -71188-4 0  9996,2 52293  53.2165 156.7760 0001389  90.2959 269.8193 15.08833256 80616,6917.901,95.438,540.727,538.805,0.0
52293.0,STARLINK-3771,PAYLOAD,2023-09-26 20:35:55,15.08832653,0.000151,53.2161,156.1818,86.8313,273.2852,7.1342e-05,8.47e-06,0.0,0 STARLINK-3771,1 52293U 22041AJ  23269.85827913  .00000847  00000-0  71342-4 0  9995,2 52293  53.2161 156.1818 0001510  86.8313 273.2852 15.08832653 79418,6917.903,95.438,540.812,538.723,0.0
52293.0,STARLINK-3771,PAYLOAD,2023-09-26 22:11:18,15.0883223,0.0001528,53.2159,155.8844,87.2709,272.8458,0.00013939,1.931e-05,0.0,0 STARLINK-3771,1 52293U 22041AJ  23269.92451988  .00001931  00000-0  13939-3 0  9990,2 52293  53.2159 155.8844 0001528  87.2709 272.8458 15.08832230 79422,6917.904,95.438,540.826,538.712,0.0
52293.0,STARLINK-3771,PAYLOAD,2023-09-27 20:26:43,15.08824889,0.0001658,53.216,151.7245,98.4323,261.6858,0.00025101,3.707e-05,0.0,0 STARLINK-3771,1 52293U 22041AJ  23270.85189257  .00003707  00000-0  25101-3 0  9998,2 52293  53.2160 151.7245 0001658  98.4323 261.6858 15.08824889 80786,6917.927,95.439,540.939,538.645,0.0
52293.0,STARLINK-3771,PAYLOAD,2023-09-28 01:12:52,15.08831534,0.0001614,53.2157,150.8306,94.9742,265.1434,0.00022242,3.253e-05,0.0,0 STARLINK-3771,1 52293U 22041AJ  23271.05061204  .00003253  00000-0  22242-3 0  9991,2 52293  53.2157 150.8306 0001614  94.9742 265.1434 15.08831534 79599,6917.906,95.438,540.888,538.655,0.0
52293.0,STARLINK-3771,PAYLOAD,2023-09-28 21:52:53,15.08850622,0.0001636,53.2154,146.964,99.6029,260.5148,0.00054364,8.377e-05,0.0,0 STARLINK-3771,1 52293U 22041AJ  23271.91172871  .00008377  00000-0  54364-3 0  9991,2 52293  53.2154 146.9640 0001636  99.6029 260.5148 15.08850622 79722,6917.848,95.437,540.845,538.581,0.0
52293.0,STARLINK-3771,PAYLOAD,2023-09-29 21:43:39,15.08854346,0.0001517,53.215,142.5035,103.7419,256.3742,0.00026421,3.921e-05,0.0,0 STARLINK-3771,1 52293U 22041AJ  23272.90532138  .00003921  00000-0  26421-3 0  9990,2 52293  53.2150 142.5035 0001517 103.7419 256.3742 15.08854346 81099,6917.837,95.437,540.751,538.652,0.0
52293.0,STARLINK-3771,PAYLOAD,2023-09-30 08:51:21,15.0884302,0.0001629,53.2149,140.4209,88.1365,271.9814,-2.0687e-05,-6.17e-06,0.0,0 STARLINK-3771,1 52293U 22041AJ  23273.36900388 -.00000617  00000-0 -20687-4 0  9997,2 52293  53.2149 140.4209 0001629  88.1365 271.9814 15.08843020 81165,6917.871,95.437,540.863,538.609,0.0
52293.0,STARLINK-3771,PAYLOAD,2023-09-30 18:23:41,15.08826303,0.0001446,53.2148,138.6392,88.0859,272.0299,-0.00021443,-3.698e-05,0.0,0 STARLINK-3771,1 52293U 22041AJ  23273.76645537 -.00003698  00000-0 -21443-3 0  9995,2 52293  53.2148 138.6392 0001446  88.0859 272.0299 15.08826303 81221,6917.922,95.438,540.788,538.787,0.0
52293.0,STARLINK-3771,PAYLOAD,2023-10-01 00:45:14,15.08831303,0.0001588,53.2139,137.4471,97.734,262.3832,-0.0001705,-3e-05,0.0,0 STARLINK-3771,1 52293U 22041AJ  23274.03141316 -.00003000  00000-0 -17050-3 0  9998,2 52293  53.2139 137.4471 0001588  97.7340 262.3832 15.08831303 81260,6917.907,95.438,540.871,538.673,0.0
52293.0,STARLINK-3771,PAYLOAD,2023-10-01 18:14:27,15.08854312,0.0001375,53.2146,134.1778,94.0044,266.1105,0.00032018,4.813e-05,0.0,0 STARLINK-3771,1 52293U 22041AJ  23274.76004360  .00004813  00000-0  32018-3 0  9997,2 52293  53.2146 134.1778 0001375  94.0044 266.1105 15.08854312 81379,6917.837,95.437,540.653,538.75,0.0
52293.0,STARLINK-3771,PAYLOAD,2023-10-01 21:25:14,15.0886108,0.0001348,53.2145,133.582,97.2025,262.9121,0.00083802,0.00013082,0.0,0 STARLINK-3771,1 52293U 22041AJ  23274.89252510  .00013082  00000-0  83802-3 0  9998,2 52293  53.2145 133.5820 0001348  97.2025 262.9121 15.08861080 80172,6917.816,95.436,540.613,538.748,0.0
52293.0,STARLINK-3771,PAYLOAD,2023-10-02 00:36:00,15.08871238,0.0001415,53.2144,132.9873,84.7988,275.3166,0.0013064,0.00020582,0.0,0 STARLINK-3771,1 52293U 22041AJ  23275.02500458  .00020582  00000-0  13064-2 0  9996,2 52293  53.2144 132.9873 0001415  84.7988 275.3166 15.08871238 81417,6917.785,95.436,540.629,538.671,0.0
52293.0,STARLINK-3771,PAYLOAD,2023-10-02 21:16:00,15.08855847,0.00012,53.2146,129.1218,96.148,263.9649,0.0013283,0.00020924,0.0,0 STARLINK-3771,1 52293U 22041AJ  23275.88612254  .00020924  00000-0  13283-2 0  9991,2 52293  53.2146 129.1218 0001200  96.1480 263.9649 15.08855847 81547,6917.832,95.437,540.527,538.867,0.0
52293.0,STARLINK-3771,PAYLOAD,2023-10-03 06:48:19,15.08846923,0.0001239,53.2152,127.3348,87.4712,272.6422,0.00066001,0.00010234,0.0,0 STARLINK-3771,1 52293U 22041AJ  23276.28356164  .00010234  00000-0  66001-3 0  9991,2 52293  53.2152 127.3348 0001239  87.4712 272.6422 15.08846923 81609,6917.859,95.437,540.581,538.867,0.0
52293.0,STARLINK-3771,PAYLOAD,2023-10-03 21:06:48,15.08833024,0.0001431,53.2151,124.6606,95.0405,265.0751,4.3651e-05,4.07e-06,0.0,0 STARLINK-3771,1 52293U 22041AJ  23276.87972589  .00000407  00000-0  43651-4 0  9999,2 52293  53.2151 124.6606 0001431  95.0405 265.0751 15.08833024 81691,6917.902,95.438,540.757,538.777,0.0
52293.0,STARLINK-3771,PAYLOAD,2023-10-04 06:39:07,15.08841857,0.0001421,53.2158,122.876,93.4366,266.6789,0.00012966,1.776e-05,0.0,0 STARLINK-3771,1 52293U 22041AJ  23277.27716496  .00001776  00000-0  12966-3 0  9991,2 52293  53.2158 122.8760 0001421  93.4366 266.6789 15.08841857 80539,6917.875,95.437,540.723,538.757,0.0
52293.0,STARLINK-3771,PAYLOAD,2023-10-04 17:46:48,15.08845935,0.0001365,53.2155,120.7942,93.1423,266.9725,0.000446,6.818e-05,0.0,0 STARLINK-3771,1 52293U 22041AJ  23277.74084337  .00006818  00000-0  44600-3 0  9997,2 52293  53.2155 120.7942 0001365  93.1423 266.9725 15.08845935 81820,6917.862,95.437,540.672,538.783,0.0
